{
  "type": "FeatureCollection",
  "features": [
    {
      "type": "Feature",
      "properties": {
        "norad_id": 30565,
        "name": "FENGYUN 1C DEB",
        "group": "fengyun-1c-debris",
        "lat": -3.4250775872042043,
        "lon": -129.17414266918922,
        "alt_km": 783.6855963188646,
        "timestamp": "2025-12-26T22:28:06.061634+00:00",
        "meta_object_name": "FENGYUN 1C DEB",
        "meta_object_id": "1999-025ALF",
        "meta_epoch": "2025-12-26T14:06:30.163968",
        "meta_mean_motion": 14.10029395,
        "meta_eccentricity": 0.01425286,
        "meta_inclination": 98.4526,
        "meta_ra_of_asc_node": 229.9885,
        "meta_arg_of_pericenter": 317.025,
        "meta_mean_anomaly": 71.3981,
        "meta_ephemeris_type": 0,
        "meta_classification_type": "U",
        "meta_norad_cat_id": 30565,
        "meta_element_set_no": 999,
        "meta_rev_at_epoch": 96122,
        "meta_bstar": 0.0019541502,
        "meta_mean_motion_dot": 3.75e-05,
        "meta_mean_motion_ddot": 0,
        "tle_line1": "1 30565U 99025ALF 25360.58784912  .00003750  00000+0  19542-2 0  9991",
        "tle_line2": "2 30565  98.4526 229.9885 0142528 317.0250  71.3981 14.10029395961221"
      },
      "geometry": {
        "type": "Point",
        "coordinates": [
          -129.17414266918922,
          -3.4250775872042043
        ]
      }
    },
    {
      "type": "Feature",
      "properties": {
        "norad_id": 30566,
        "name": "FENGYUN 1C DEB",
        "group": "fengyun-1c-debris",
        "lat": 24.129237987544744,
        "lon": 45.68597589631444,
        "alt_km": 876.0874209778458,
        "timestamp": "2025-12-26T22:28:06.061645+00:00",
        "meta_object_name": "FENGYUN 1C DEB",
        "meta_object_id": "1999-025ALG",
        "meta_epoch": "2025-12-26T09:05:12.083712",
        "meta_mean_motion": 14.11749536,
        "meta_eccentricity": 0.00683265,
        "meta_inclination": 99.2155,
        "meta_ra_of_asc_node": 49.2837,
        "meta_arg_of_pericenter": 144.7139,
        "meta_mean_anomaly": 288.3673,
        "meta_ephemeris_type": 0,
        "meta_classification_type": "U",
        "meta_norad_cat_id": 30566,
        "meta_element_set_no": 999,
        "meta_rev_at_epoch": 96575,
        "meta_bstar": 0.0013466813,
        "meta_mean_motion_dot": 2.462e-05,
        "meta_mean_motion_ddot": 0,
        "tle_line1": "1 30566U 99025ALG 25360.37861208  .00002462  00000+0  13467-2 0  9992",
        "tle_line2": "2 30566  99.2155  49.2837 0068326 144.7139 288.3673 14.11749536965750"
      },
      "geometry": {
        "type": "Point",
        "coordinates": [
          45.68597589631444,
          24.129237987544744
        ]
      }
    },
    {
      "type": "Feature",
      "properties": {
        "norad_id": 30567,
        "name": "FENGYUN 1C DEB",
        "group": "fengyun-1c-debris",
        "lat": -19.142377422047673,
        "lon": 168.17714934093686,
        "alt_km": 816.7358576286679,
        "timestamp": "2025-12-26T22:28:06.061655+00:00",
        "meta_object_name": "FENGYUN 1C DEB",
        "meta_object_id": "1999-025ALH",
        "meta_epoch": "2025-12-25T12:02:24.751104",
        "meta_mean_motion": 14.08910336,
        "meta_eccentricity": 0.0109355,
        "meta_inclination": 98.7765,
        "meta_ra_of_asc_node": 349.8541,
        "meta_arg_of_pericenter": 153.2846,
        "meta_mean_anomaly": 333.145,
        "meta_ephemeris_type": 0,
        "meta_classification_type": "U",
        "meta_norad_cat_id": 30567,
        "meta_element_set_no": 999,
        "meta_rev_at_epoch": 96953,
        "meta_bstar": 0.00032264,
        "meta_mean_motion_dot": 5.47e-06,
        "meta_mean_motion_ddot": 0,
        "tle_line1": "1 30567U 99025ALH 25359.50167536  .00000547  00000+0  32264-3 0  9998",
        "tle_line2": "2 30567  98.7765 349.8541 0109355 153.2846 333.1450 14.08910336969537"
      },
      "geometry": {
        "type": "Point",
        "coordinates": [
          168.17714934093686,
          -19.142377422047673
        ]
      }
    },
    {
      "type": "Feature",
      "properties": {
        "norad_id": 30568,
        "name": "FENGYUN 1C DEB",
        "group": "fengyun-1c-debris",
        "lat": -66.3445084839155,
        "lon": -166.81842043116842,
        "alt_km": 723.4202237246272,
        "timestamp": "2025-12-26T22:28:06.061666+00:00",
        "meta_object_name": "FENGYUN 1C DEB",
        "meta_object_id": "1999-025ALJ",
        "meta_epoch": "2025-12-26T09:51:41.452416",
        "meta_mean_motion": 14.55520448,
        "meta_eccentricity": 0.00157193,
        "meta_inclination": 98.9425,
        "meta_ra_of_asc_node": 171.5524,
        "meta_arg_of_pericenter": 153.1426,
        "meta_mean_anomaly": 267.9316,
        "meta_ephemeris_type": 0,
        "meta_classification_type": "U",
        "meta_norad_cat_id": 30568,
        "meta_element_set_no": 999,
        "meta_rev_at_epoch": 97858,
        "meta_bstar": 0.0032449061,
        "meta_mean_motion_dot": 0.0001413,
        "meta_mean_motion_ddot": 0,
        "tle_line1": "1 30568U 99025ALJ 25360.41089644  .00014130  00000+0  32449-2 0  9991",
        "tle_line2": "2 30568  98.9425 171.5524 0015719 153.1426 267.9316 14.55520448978580"
      },
      "geometry": {
        "type": "Point",
        "coordinates": [
          -166.81842043116842,
          -66.3445084839155
        ]
      }
    },
    {
      "type": "Feature",
      "properties": {
        "norad_id": 30569,
        "name": "FENGYUN 1C DEB",
        "group": "fengyun-1c-debris",
        "lat": 8.58196088799347,
        "lon": -37.66282737814589,
        "alt_km": 652.2895491444997,
        "timestamp": "2025-12-26T22:28:06.061676+00:00",
        "meta_object_name": "FENGYUN 1C DEB",
        "meta_object_id": "1999-025ALK",
        "meta_epoch": "2025-12-26T07:02:04.556256",
        "meta_mean_motion": 14.74248557,
        "meta_eccentricity": 0.00059486,
        "meta_inclination": 98.7372,
        "meta_ra_of_asc_node": 140.3145,
        "meta_arg_of_pericenter": 36.5386,
        "meta_mean_anomaly": 323.6225,
        "meta_ephemeris_type": 0,
        "meta_classification_type": "U",
        "meta_norad_cat_id": 30569,
        "meta_element_set_no": 999,
        "meta_rev_at_epoch": 98406,
        "meta_bstar": 0.0033905356,
        "meta_mean_motion_dot": 0.00022432,
        "meta_mean_motion_ddot": 0,
        "tle_line1": "1 30569U 99025ALK 25360.29310829  .00022432  00000+0  33905-2 0  9992",
        "tle_line2": "2 30569  98.7372 140.3145 0005948  36.5386 323.6225 14.74248557984063"
      },
      "geometry": {
        "type": "Point",
        "coordinates": [
          -37.66282737814589,
          8.58196088799347
        ]
      }
    },
    {
      "type": "Feature",
      "properties": {
        "norad_id": 30570,
        "name": "FENGYUN 1C DEB",
        "group": "fengyun-1c-debris",
        "lat": -59.32195313434967,
        "lon": -161.87398620646314,
        "alt_km": 842.374314956307,
        "timestamp": "2025-12-26T22:28:06.061686+00:00",
        "meta_object_name": "FENGYUN 1C DEB",
        "meta_object_id": "1999-025ALL",
        "meta_epoch": "2025-12-26T15:07:52.830048",
        "meta_mean_motion": 14.14293056,
        "meta_eccentricity": 0.00358863,
        "meta_inclination": 98.7139,
        "meta_ra_of_asc_node": 32.8104,
        "meta_arg_of_pericenter": 172.4272,
        "meta_mean_anomaly": 311.9672,
        "meta_ephemeris_type": 0,
        "meta_classification_type": "U",
        "meta_norad_cat_id": 30570,
        "meta_element_set_no": 999,
        "meta_rev_at_epoch": 97194,
        "meta_bstar": 0.00046450027,
        "meta_mean_motion_dot": 8.5e-06,
        "meta_mean_motion_ddot": 0,
        "tle_line1": "1 30570U 99025ALL 25360.63047257  .00000850  00000+0  46450-3 0  9994",
        "tle_line2": "2 30570  98.7139  32.8104 0035886 172.4272 311.9672 14.14293056971941"
      },
      "geometry": {
        "type": "Point",
        "coordinates": [
          -161.87398620646314,
          -59.32195313434967
        ]
      }
    },
    {
      "type": "Feature",
      "properties": {
        "norad_id": 30571,
        "name": "FENGYUN 1C DEB",
        "group": "fengyun-1c-debris",
        "lat": -6.156757688001097,
        "lon": 27.694768121333084,
        "alt_km": 875.222814137398,
        "timestamp": "2025-12-26T22:28:06.061697+00:00",
        "meta_object_name": "FENGYUN 1C DEB",
        "meta_object_id": "1999-025ALM",
        "meta_epoch": "2025-12-26T14:34:53.807808",
        "meta_mean_motion": 14.10708551,
        "meta_eccentricity": 0.00213617,
        "meta_inclination": 98.7304,
        "meta_ra_of_asc_node": 26.4258,
        "meta_arg_of_pericenter": 193.8735,
        "meta_mean_anomaly": 291.983,
        "meta_ephemeris_type": 0,
        "meta_classification_type": "U",
        "meta_norad_cat_id": 30571,
        "meta_element_set_no": 999,
        "meta_rev_at_epoch": 97082,
        "meta_bstar": 0.00029436816,
        "meta_mean_motion_dot": 4.84e-06,
        "meta_mean_motion_ddot": 0,
        "tle_line1": "1 30571U 99025ALM 25360.60756722  .00000484  00000+0  29437-3 0  9995",
        "tle_line2": "2 30571  98.7304  26.4258 0021361 193.8735 291.9830 14.10708551970825"
      },
      "geometry": {
        "type": "Point",
        "coordinates": [
          27.694768121333084,
          -6.156757688001097
        ]
      }
    }
  ]
}